[{"OBJECT_NAME":"TK-2","OBJECT_ID":"2022-031A","EPOCH":"2026-03-09T22:51:17.143200","MEAN_MOTION":15.02943491,"ECCENTRICITY":0.00164117,"INCLINATION":97.8366,"RA_OF_ASC_NODE":263.9365,"ARG_OF_PERICENTER":100.3205,"MEAN_ANOMALY":259.9871,"EPHEMERIS_TYPE":0,"CLASSIFICATION_TYPE":"U","NORAD_CAT_ID":52150,"ELEMENT_SET_NO":999,"REV_AT_EPOCH":21555,"BSTAR":0.00040164474,"MEAN_MOTION_DOT":5.349e-5,"MEAN_MOTION_DDOT":0},{"OBJECT_NAME":"STARLINK-5540","OBJECT_ID":"2023-058Z","EPOCH":"2026-03-09T22:42:45.465984","MEAN_MOTION":15.05638746,"ECCENTRICITY":0.00020434,"INCLINATION":97.6037,"RA_OF_ASC_NODE":71.4461,"ARG_OF_PERICENTER":87.8515,"MEAN_ANOMALY":272.2946,"EPHEMERIS_TYPE":0,"CLASSIFICATION_TYPE":"U","NORAD_CAT_ID":56340,"ELEMENT_SET_NO":999,"REV_AT_EPOCH":15823,"BSTAR":4.6171975e-5,"MEAN_MOTION_DOT":6.05e-6,"MEAN_MOTION_DDOT":0}]
